{
    "links": {
        "self": "http://www.neowsapp.com/rest/v1/neo/3842942?api_key=iIulBulltgU6a56xZRHN4H3l9WmuAYTsLGpBGhQ2"
    },
    "id": "3842942",
    "neo_reference_id": "3842942",
    "name": "(2019 MG1)",
    "designation": "2019 MG1",
    "nasa_jpl_url": "http://ssd.jpl.nasa.gov/sbdb.cgi?sstr=3842942",
    "absolute_magnitude_h": 23.6,
    "estimated_diameter": {
        "kilometers": {
            "estimated_diameter_min": 0.0506471459,
            "estimated_diameter_max": 0.1132504611
        },
        "meters": {
            "estimated_diameter_min": 50.6471458835,
            "estimated_diameter_max": 113.2504610618
        },
        "miles": {
            "estimated_diameter_min": 0.0314706677,
            "estimated_diameter_max": 0.0703705522
        },
        "feet": {
            "estimated_diameter_min": 166.1651821003,
            "estimated_diameter_max": 371.5566426699
        }
    },
    "is_potentially_hazardous_asteroid": false,
    "close_approach_data": [
        {
            "close_approach_date": "2019-06-25",
            "close_approach_date_full": "2019-Jun-25 23:03",
            "epoch_date_close_approach": 1561503780000,
            "relative_velocity": {
                "kilometers_per_second": "10.2781284174",
                "kilometers_per_hour": "37001.262302595",
                "miles_per_hour": "22991.1454568541"
            },
            "miss_distance": {
                "astronomical": "0.0543055646",
                "lunar": "21.1248646294",
                "kilometers": "8123996.793307402",
                "miles": "5048017.5276780676"
            },
            "orbiting_body": "Earth"
        }
    ],
    "orbital_data": {
        "orbit_id": "1",
        "orbit_determination_date": "2019-06-27 11:42:08",
        "first_observation_date": "2019-05-28",
        "last_observation_date": "2019-06-27",
        "data_arc_in_days": 30,
        "observations_used": 50,
        "orbit_uncertainty": "8",
        "minimum_orbit_intersection": ".0470568",
        "jupiter_tisserand_invariant": "3.805",
        "epoch_osculation": "2458649.5",
        "eccentricity": ".4372280699677619",
        "semi_major_axis": "1.881907764722748",
        "inclination": "15.8855488277439",
        "ascending_node_longitude": "97.99862637008975",
        "orbital_period": "942.9657702682749",
        "perihelion_distance": "1.059084864895676",
        "perihelion_argument": "169.5785903025549",
        "aphelion_distance": "2.704730664549821",
        "perihelion_time": "2458653.433409212473",
        "mean_anomaly": "358.4983258553623",
        "mean_motion": ".381774197272908",
        "equinox": "J2000",
        "orbit_class": {
            "orbit_class_type": "AMO",
            "orbit_class_description": "Near-Earth asteroid orbits similar to that of 1221 Amor",
            "orbit_class_range": "1.017 AU < q (perihelion) < 1.3 AU"
        }
    },
    "is_sentry_object": false
}